{"epoch":1784710044,"count":18256,"objects":[{"id":"25544","name":"ISS (ZARYA)","type":"PAYLOAD","l1":"1 25544U 98067A   26202.18553447  .00005896  00000-0  11479-3 0  9992","l2":"2 25544  51.6316 131.8443 0006849 320.6461  39.4029 15.49071756577020"}]}